{
    "links": {
        "self": "http://www.neowsapp.com/rest/v1/neo/3682464?api_key=iIulBulltgU6a56xZRHN4H3l9WmuAYTsLGpBGhQ2"
    },
    "id": "3682464",
    "neo_reference_id": "3682464",
    "name": "(2014 QD33)",
    "designation": "2014 QD33",
    "nasa_jpl_url": "http://ssd.jpl.nasa.gov/sbdb.cgi?sstr=3682464",
    "absolute_magnitude_h": 24.9,
    "estimated_diameter": {
        "kilometers": {
            "estimated_diameter_min": 0.0278326768,
            "estimated_diameter_max": 0.0622357573
        },
        "meters": {
            "estimated_diameter_min": 27.8326768072,
            "estimated_diameter_max": 62.2357573367
        },
        "miles": {
            "estimated_diameter_min": 0.0172944182,
            "estimated_diameter_max": 0.0386714948
        },
        "feet": {
            "estimated_diameter_min": 91.3145593761,
            "estimated_diameter_max": 204.1855621004
        }
    },
    "is_potentially_hazardous_asteroid": false,
    "close_approach_data": [
        {
            "close_approach_date": "2014-08-27",
            "close_approach_date_full": "2014-Aug-27 06:44",
            "epoch_date_close_approach": 1409121840000,
            "relative_velocity": {
                "kilometers_per_second": "12.4842691032",
                "kilometers_per_hour": "44943.3687714466",
                "miles_per_hour": "27926.0615569024"
            },
            "miss_distance": {
                "astronomical": "0.0368607847",
                "lunar": "14.3388452483",
                "kilometers": "5514294.877648589",
                "miles": "3426423.9515809682"
            },
            "orbiting_body": "Earth"
        }
    ],
    "orbital_data": {
        "orbit_id": "4",
        "orbit_determination_date": "2017-04-06 08:39:15",
        "first_observation_date": "2014-08-20",
        "last_observation_date": "2014-08-25",
        "data_arc_in_days": 5,
        "observations_used": 15,
        "orbit_uncertainty": "8",
        "minimum_orbit_intersection": ".0109175",
        "jupiter_tisserand_invariant": "4.470",
        "epoch_osculation": "2456892.5",
        "eccentricity": ".4497140746668122",
        "semi_major_axis": "1.478745427077331",
        "inclination": "3.126224722035529",
        "ascending_node_longitude": "145.408411388615",
        "orbital_period": "656.8081737457387",
        "perihelion_distance": ".8137327956714692",
        "perihelion_argument": "259.5663742567497",
        "aphelion_distance": "2.143758058483193",
        "perihelion_time": "2456947.012370624865",
        "mean_anomaly": "330.1214841571866",
        "mean_motion": ".5481052374043109",
        "equinox": "J2000",
        "orbit_class": {
            "orbit_class_type": "APO",
            "orbit_class_description": "Near-Earth asteroid orbits which cross the Earth’s orbit similar to that of 1862 Apollo",
            "orbit_class_range": "a (semi-major axis) > 1.0 AU; q (perihelion) < 1.017 AU"
        }
    },
    "is_sentry_object": false
}